[{"OBJECT_NAME":"STARLINK-3109","OBJECT_ID":"2021-082P","EPOCH":"2026-03-09T22:38:59.114400","MEAN_MOTION":14.97507048,"ECCENTRICITY":0.00027567,"INCLINATION":69.9979,"RA_OF_ASC_NODE":274.6045,"ARG_OF_PERICENTER":269.1542,"MEAN_ANOMALY":90.93,"EPHEMERIS_TYPE":0,"CLASSIFICATION_TYPE":"U","NORAD_CAT_ID":49143,"ELEMENT_SET_NO":999,"REV_AT_EPOCH":24760,"BSTAR":-0.00017275422,"MEAN_MOTION_DOT":-2.11e-5,"MEAN_MOTION_DDOT":0},{"OBJECT_NAME":"LEMUR-2-EMERSONROSE","OBJECT_ID":"2025-052BD","EPOCH":"2026-03-09T22:41:34.308672","MEAN_MOTION":14.98235234,"ECCENTRICITY":0.00026118,"INCLINATION":97.701,"RA_OF_ASC_NODE":323.5746,"ARG_OF_PERICENTER":47.547,"MEAN_ANOMALY":312.5973,"EPHEMERIS_TYPE":0,"CLASSIFICATION_TYPE":"U","NORAD_CAT_ID":63261,"ELEMENT_SET_NO":999,"REV_AT_EPOCH":5387,"BSTAR":0.00054278878,"MEAN_MOTION_DOT":6.392e-5,"MEAN_MOTION_DDOT":0}]
